CCSDS_OMM_VERS = 2.0
CREATION_DATE  = 
ORIGINATOR     = 

OBJECT_NAME    = QIANFAN-92
OBJECT_ID      = 2025-233B
CENTER_NAME    = EARTH
REF_FRAME      = TEME
TIME_SYSTEM    = UTC
MEAN_ELEMENT_THEORY = SGP/SGP4

EPOCH          = 2025-11-13T10:16:47.800128
MEAN_MOTION    = 14.23556525
ECCENTRICITY   = .0016675
INCLINATION    = 88.9967
RA_OF_ASC_NODE = 65.4070
ARG_OF_PERICENTER = 127.1145
MEAN_ANOMALY   = 233.1574

EPHEMERIS_TYPE = 0
CLASSIFICATION_TYPE = U
NORAD_CAT_ID   = 66034
ELEMENT_SET_NO = 999
REV_AT_EPOCH   = 386
BSTAR          = .58982E-3
MEAN_MOTION_DOT = .1358E-4
MEAN_MOTION_DDOT = 0

CCSDS_OMM_VERS = 2.0
CREATION_DATE  = 
ORIGINATOR     = 

OBJECT_NAME    = QIANFAN-93
OBJECT_ID      = 2025-233C
CENTER_NAME    = EARTH
REF_FRAME      = TEME
TIME_SYSTEM    = UTC
MEAN_ELEMENT_THEORY = SGP/SGP4

EPOCH          = 2025-11-13T11:54:30.362400
MEAN_MOTION    = 14.24841785
ECCENTRICITY   = .0015918
INCLINATION    = 88.9948
RA_OF_ASC_NODE = 65.3969
ARG_OF_PERICENTER = 128.1758
MEAN_ANOMALY   = 232.0871

EPHEMERIS_TYPE = 0
CLASSIFICATION_TYPE = U
NORAD_CAT_ID   = 66035
ELEMENT_SET_NO = 999
REV_AT_EPOCH   = 387
BSTAR          = .65138E-3
MEAN_MOTION_DOT = .1535E-4
MEAN_MOTION_DDOT = 0

CCSDS_OMM_VERS = 2.0
CREATION_DATE  = 
ORIGINATOR     = 

OBJECT_NAME    = QIANFAN-94
OBJECT_ID      = 2025-233D
CENTER_NAME    = EARTH
REF_FRAME      = TEME
TIME_SYSTEM    = UTC
MEAN_ELEMENT_THEORY = SGP/SGP4

EPOCH          = 2025-11-13T15:17:23.324928
MEAN_MOTION    = 14.23791671
ECCENTRICITY   = .0016089
INCLINATION    = 88.9962
RA_OF_ASC_NODE = 65.3822
ARG_OF_PERICENTER = 125.6728
MEAN_ANOMALY   = 234.5964

EPHEMERIS_TYPE = 0
CLASSIFICATION_TYPE = U
NORAD_CAT_ID   = 66036
ELEMENT_SET_NO = 999
REV_AT_EPOCH   = 389
BSTAR          = .59796E-3
MEAN_MOTION_DOT = .1383E-4
MEAN_MOTION_DDOT = 0

CCSDS_OMM_VERS = 2.0
CREATION_DATE  = 
ORIGINATOR     = 

OBJECT_NAME    = QIANFAN-95
OBJECT_ID      = 2025-233E
CENTER_NAME    = EARTH
REF_FRAME      = TEME
TIME_SYSTEM    = UTC
MEAN_ELEMENT_THEORY = SGP/SGP4

EPOCH          = 2025-11-13T20:17:38.113728
MEAN_MOTION    = 14.26175780
ECCENTRICITY   = .0016154
INCLINATION    = 88.9956
RA_OF_ASC_NODE = 65.3568
ARG_OF_PERICENTER = 126.6684
MEAN_ANOMALY   = 233.5997

EPHEMERIS_TYPE = 0
CLASSIFICATION_TYPE = U
NORAD_CAT_ID   = 66037
ELEMENT_SET_NO = 999
REV_AT_EPOCH   = 392
BSTAR          = .78673E-3
MEAN_MOTION_DOT = .1899E-4
MEAN_MOTION_DDOT = 0

CCSDS_OMM_VERS = 2.0
CREATION_DATE  = 
ORIGINATOR     = 

OBJECT_NAME    = QIANFAN-96
OBJECT_ID      = 2025-233F
CENTER_NAME    = EARTH
REF_FRAME      = TEME
TIME_SYSTEM    = UTC
MEAN_ELEMENT_THEORY = SGP/SGP4

EPOCH          = 2025-11-13T15:16:35.162976
MEAN_MOTION    = 14.23443906
ECCENTRICITY   = .0016565
INCLINATION    = 88.9959
RA_OF_ASC_NODE = 65.3807
ARG_OF_PERICENTER = 127.8410
MEAN_ANOMALY   = 232.4284

EPHEMERIS_TYPE = 0
CLASSIFICATION_TYPE = U
NORAD_CAT_ID   = 66038
ELEMENT_SET_NO = 999
REV_AT_EPOCH   = 389
BSTAR          = .51864E-3
MEAN_MOTION_DOT = .1193E-4
MEAN_MOTION_DDOT = 0

CCSDS_OMM_VERS = 2.0
CREATION_DATE  = 
ORIGINATOR     = 

OBJECT_NAME    = QIANFAN-97
OBJECT_ID      = 2025-233G
CENTER_NAME    = EARTH
REF_FRAME      = TEME
TIME_SYSTEM    = UTC
MEAN_ELEMENT_THEORY = SGP/SGP4

EPOCH          = 2025-11-13T20:19:11.182944
MEAN_MOTION    = 14.23127933
ECCENTRICITY   = .0031102
INCLINATION    = 89.0031
RA_OF_ASC_NODE = 65.2235
ARG_OF_PERICENTER = 154.7004
MEAN_ANOMALY   = 205.5719

EPHEMERIS_TYPE = 0
CLASSIFICATION_TYPE = U
NORAD_CAT_ID   = 66039
ELEMENT_SET_NO = 999
REV_AT_EPOCH   = 392
BSTAR          = .72862E-3
MEAN_MOTION_DOT = .1666E-4
MEAN_MOTION_DDOT = 0

CCSDS_OMM_VERS = 2.0
CREATION_DATE  = 
ORIGINATOR     = 

OBJECT_NAME    = QIANFAN-98
OBJECT_ID      = 2025-233H
CENTER_NAME    = EARTH
REF_FRAME      = TEME
TIME_SYSTEM    = UTC
MEAN_ELEMENT_THEORY = SGP/SGP4

EPOCH          = 2025-11-13T20:16:29.095680
MEAN_MOTION    = 14.26205996
ECCENTRICITY   = .001596
INCLINATION    = 88.9959
RA_OF_ASC_NODE = 65.3570
ARG_OF_PERICENTER = 126.7337
MEAN_ANOMALY   = 233.5325

EPHEMERIS_TYPE = 0
CLASSIFICATION_TYPE = U
NORAD_CAT_ID   = 66040
ELEMENT_SET_NO = 999
REV_AT_EPOCH   = 392
BSTAR          = .64903E-3
MEAN_MOTION_DOT = .157E-4
MEAN_MOTION_DDOT = 0

CCSDS_OMM_VERS = 2.0
CREATION_DATE  = 
ORIGINATOR     = 

OBJECT_NAME    = QIANFAN-99
OBJECT_ID      = 2025-233J
CENTER_NAME    = EARTH
REF_FRAME      = TEME
TIME_SYSTEM    = UTC
MEAN_ELEMENT_THEORY = SGP/SGP4

EPOCH          = 2025-11-13T15:15:09.868896
MEAN_MOTION    = 14.23759960
ECCENTRICITY   = .0016035
INCLINATION    = 88.9957
RA_OF_ASC_NODE = 65.3810
ARG_OF_PERICENTER = 125.7733
MEAN_ANOMALY   = 234.4952

EPHEMERIS_TYPE = 0
CLASSIFICATION_TYPE = U
NORAD_CAT_ID   = 66041
ELEMENT_SET_NO = 999
REV_AT_EPOCH   = 389
BSTAR          = .58354E-3
MEAN_MOTION_DOT = .1349E-4
MEAN_MOTION_DDOT = 0

CCSDS_OMM_VERS = 2.0
CREATION_DATE  = 
ORIGINATOR     = 

OBJECT_NAME    = QIANFAN-100
OBJECT_ID      = 2025-233K
CENTER_NAME    = EARTH
REF_FRAME      = TEME
TIME_SYSTEM    = UTC
MEAN_ELEMENT_THEORY = SGP/SGP4

EPOCH          = 2025-11-13T20:15:54.603936
MEAN_MOTION    = 14.26237015
ECCENTRICITY   = .0016562
INCLINATION    = 88.9959
RA_OF_ASC_NODE = 65.3570
ARG_OF_PERICENTER = 127.3795
MEAN_ANOMALY   = 232.8909

EPHEMERIS_TYPE = 0
CLASSIFICATION_TYPE = U
NORAD_CAT_ID   = 66042
ELEMENT_SET_NO = 999
REV_AT_EPOCH   = 392
BSTAR          = .65068E-3
MEAN_MOTION_DOT = .1575E-4
MEAN_MOTION_DDOT = 0

CCSDS_OMM_VERS = 2.0
CREATION_DATE  = 
ORIGINATOR     = 

OBJECT_NAME    = QIANFAN-101
OBJECT_ID      = 2025-233L
CENTER_NAME    = EARTH
REF_FRAME      = TEME
TIME_SYSTEM    = UTC
MEAN_ELEMENT_THEORY = SGP/SGP4

EPOCH          = 2025-11-13T20:08:38.429088
MEAN_MOTION    = 14.26646977
ECCENTRICITY   = .0016592
INCLINATION    = 88.9960
RA_OF_ASC_NODE = 65.3562
ARG_OF_PERICENTER = 125.5554
MEAN_ANOMALY   = 234.7190

EPHEMERIS_TYPE = 0
CLASSIFICATION_TYPE = U
NORAD_CAT_ID   = 66043
ELEMENT_SET_NO = 999
REV_AT_EPOCH   = 392
BSTAR          = .32847E-3
MEAN_MOTION_DOT = .809E-5
MEAN_MOTION_DDOT = 0

CCSDS_OMM_VERS = 2.0
CREATION_DATE  = 
ORIGINATOR     = 

OBJECT_NAME    = QIANFAN-102
OBJECT_ID      = 2025-233M
CENTER_NAME    = EARTH
REF_FRAME      = TEME
TIME_SYSTEM    = UTC
MEAN_ELEMENT_THEORY = SGP/SGP4

EPOCH          = 2025-11-13T16:54:06.760224
MEAN_MOTION    = 14.25343314
ECCENTRICITY   = .0016999
INCLINATION    = 88.9959
RA_OF_ASC_NODE = 65.3734
ARG_OF_PERICENTER = 127.8800
MEAN_ANOMALY   = 232.3934

EPHEMERIS_TYPE = 0
CLASSIFICATION_TYPE = U
NORAD_CAT_ID   = 66044
ELEMENT_SET_NO = 999
REV_AT_EPOCH   = 390
BSTAR          = .66816E-3
MEAN_MOTION_DOT = .159E-4
MEAN_MOTION_DDOT = 0

CCSDS_OMM_VERS = 2.0
CREATION_DATE  = 
ORIGINATOR     = 

OBJECT_NAME    = QIANFAN-103
OBJECT_ID      = 2025-233N
CENTER_NAME    = EARTH
REF_FRAME      = TEME
TIME_SYSTEM    = UTC
MEAN_ELEMENT_THEORY = SGP/SGP4

EPOCH          = 2025-11-13T15:13:54.175584
MEAN_MOTION    = 14.23689194
ECCENTRICITY   = .0016198
INCLINATION    = 88.9950
RA_OF_ASC_NODE = 65.3817
ARG_OF_PERICENTER = 125.9071
MEAN_ANOMALY   = 234.3627

EPHEMERIS_TYPE = 0
CLASSIFICATION_TYPE = U
NORAD_CAT_ID   = 66045
ELEMENT_SET_NO = 999
REV_AT_EPOCH   = 389
BSTAR          = .52942E-3
MEAN_MOTION_DOT = .1223E-4
MEAN_MOTION_DDOT = 0

